EUTELSAT 21B            
1 38992U 12062B   25287.88933813  .00000116  00000+0  00000+0 0  9995
2 38992   0.0809  29.5708 0002755 182.5703 153.2877  1.00272998 47367
EUTELSAT 70B            
1 39020U 12069A   25287.90114315 -.00000059  00000+0  00000+0 0  9993
2 39020   0.0692 342.8003 0004370 221.5799 214.2434  1.00273382 47043
EUTELSAT 117 WEST A     
1 39122U 13012A   25287.53466683 -.00000028  00000+0  00000+0 0  9998
2 39122   0.0641  70.0478 0002827 144.1015 244.8873  1.00273096 45970
EUTELSAT 7B             
1 39163U 13022A   25287.91596794  .00000033  00000+0  00000+0 0  9998
2 39163   0.0722  18.0150 0001768 288.4008  54.0357  1.00272040 45494
EXPRESS-AT1             
1 39612U 14010A   25287.06946396  .00000065  00000+0  00000+0 0  9993
2 39612   0.0192 222.4421 0000450 318.6908 282.7597  1.00271194 42355
EXPRESS-AT2             
1 39613U 14010B   25285.23079185 -.00000290  00000+0  00000+0 0  9995
2 39613   0.0174 228.3626 0000312 164.2420 211.3956  1.00268655 42017
EUTELSAT 3B             
1 39773U 14030A   25287.89489029  .00000006  00000+0  00000+0 0  9994
2 39773   0.0688 349.2550 0004768 209.7352 149.9797  1.00273064 41604
EUTELSAT 115 WEST B     
1 40425U 15010B   25287.60642716 -.00000040  00000+0  00000+0 0  9991
2 40425   0.0102  74.1701 0000313  32.1449  20.5194  1.00272310 38930
